OBJECT_NAME,OBJECT_ID,EPOCH,MEAN_MOTION,ECCENTRICITY,INCLINATION,RA_OF_ASC_NODE,ARG_OF_PERICENTER,MEAN_ANOMALY,EPHEMERIS_TYPE,CLASSIFICATION_TYPE,NORAD_CAT_ID,ELEMENT_SET_NO,REV_AT_EPOCH,BSTAR,MEAN_MOTION_DOT,MEAN_MOTION_DDOT
GEOSCAN 3 (RS92S3),2025-155T,2026-06-27T22:41:01.338432,15.35748566,.00080275,97.4535,148.9494,130.7531,229.4411,0,U,64893,999,8250,.53998478E-3,.18737E-3,0
INNOSAT 3 (RS92S0),2025-155U,2026-06-27T22:33:42.371136,15.44581999,.00078155,97.4481,150.6984,126.9050,233.2915,0,U,64894,999,8262,.78102675E-3,.36373E-3,0
KNACKSAT-2,1998-067XZ,2026-06-27T11:15:45.617472,15.60876135,.00086243,51.6278,242.7251,261.3976,98.6041,0,U,67683,999,2188,.57112017E-3,.48531E-3,0
