GEOSCAN-3 (RS92S3)
1 64893U 25155T   26178.94515438  .00018737  00000-0  53998-3 0  9994
2 64893  97.4535 148.9494 0008027 130.7531 229.4411 15.35748566 82509
INNOSAT3 (RS92S0)
1 64894U 25155U   26178.94007374  .00036373  00000-0  78103-3 0  9991
2 64894  97.4481 150.6984 0007815 126.9050 233.2915 15.44581999 82621
KNACKSAT-2
1 67683U 98067XZ  26178.46927798  .00048531  00000-0  57112-3 0  9996
2 67683  51.6278 242.7251 0008624 261.3976  98.6041 15.60876135 21887
